{
    "type": "FeatureCollection",
    "features": [
        {
            "type": "Feature",
            "properties": {
                "name": "Hollywood - East of City Hall",
                "timezone": "America/New_York",
                "zone": "Zone 1",
                "Sunday": "10 AM - 9 PM",
                "Monday": "10 AM - 9 PM",
                "Tuesday": "10 AM - 9 PM",
                "Wednesday": "10 AM - 9 PM",
                "Thursday": "10 AM - 9 PM",
                "Friday": "10 AM - 10 PM",
                "Saturday": "10 AM - 10 PM"
            },
            "geometry": {
                "type": "Polygon",
                "coordinates": [
                    [
                        [
                            -80.15460755230889,
                            26.0098023997092
                        ],
                        [
                            -80.15453245045647,
                            26.007497889100332
                        ],
                        [
                            -80.1550420701693,
                            26.00747378310184
                        ],
                        [
                            -80.15502061249718,
                            26.007068801586946
                        ],
                        [
                            -80.15454317929253,
                            26.007068801586946
                        ],
                        [
                            -80.1544841706942,
                            26.004957089632857
                        ],
                        [
                            -80.15268709065423,
                            26.00500048135648
                        ],
                        [
                            -80.15265490414605,
                            26.003038195159203
                        ],
                        [
                            -80.14570798279748,
                            26.00319730066677
                        ],
                        [
                            -80.14545049073205,
                            25.99632663929481
                        ],
                        [
                            -80.13651803226497,
                            25.996707549639105
                        ],
                        [
                            -80.1366131908717,
                            26.00350230604543
                        ],
                        [
                            -80.13480001757763,
                            26.00387837177547
                        ],
                        [
                            -80.1349019415202,
                            26.009432433104152
                        ],
                        [
                            -80.11936122248791,
                            26.010203809735888
                        ],
                        [
                            -80.11875862378403,
                            26.01191773802447
                        ],
                        [
                            -80.11807734269425,
                            26.011830959673084
                        ],
                        [
                            -80.1198753455438,
                            25.991845102931478
                        ],
                        [
                            -80.12082216532606,
                            25.989769281771565
                        ],
                        [
                            -80.12158927710432,
                            25.986760360925604
                        ],
                        [
                            -80.11884537728208,
                            25.986837513704387
                        ],
                        [
                            -80.11901703865904,
                            25.98506298698029
                        ],
                        [
                            -80.1173004248895,
                            25.984674805688467
                        ],
                        [
                            -80.11704491175745,
                            25.98683802821567
                        ],
                        [
                            -80.11833505429361,
                            25.987144227805793
                        ],
                        [
                            -80.11807219781015,
                            25.987920572797805
                        ],
                        [
                            -80.11601085627578,
                            25.987998987759482
                        ],
                        [
                            -80.11129363119126,
                            26.03998558205693
                        ],
                        [
                            -80.11644347249985,
                            26.03998076219215
                        ],
                        [
                            -80.11790318724522,
                            26.01274483146205
                        ],
                        [
                            -80.11836989161381,
                            26.01278822030806
                        ],
                        [
                            -80.11841280695805,
                            26.014620179173832
                        ],
                        [
                            -80.13411977418836,
                            26.013612465245476
                        ],
                        [
                            -80.14176675208982,
                            26.013682368972855
                        ],
                        [
                            -80.14150627739404,
                            26.018543285232347
                        ],
                        [
                            -80.13481379456447,
                            26.01846615327648
                        ],
                        [
                            -80.13489426083491,
                            26.014072023458862
                        ],
                        [
                            -80.13403595395015,
                            26.013992478098785
                        ],
                        [
                            -80.13403327174113,
                            26.019014218865806
                        ],
                        [
                            -80.12734864630042,
                            26.019009398139374
                        ],
                        [
                            -80.12734328188239,
                            26.0209328522578
                        ],
                        [
                            -80.12872193731604,
                            26.02046524851757
                        ],
                        [
                            -80.12862537779151,
                            26.01978071184728
                        ],
                        [
                            -80.15318252205776,
                            26.019469793851663
                        ],
                        [
                            -80.15317715763973,
                            26.012838723248986
                        ],
                        [
                            -80.15841785333312,
                            26.012756766561687
                        ],
                        [
                            -80.15824887416518,
                            26.011913091455035
                        ],
                        [
                            -80.1592788424269,
                            26.011985406701722
                        ],
                        [
                            -80.15901866815246,
                            26.010985041835706
                        ],
                        [
                            -80.15806916616118,
                            26.011447862303037
                        ],
                        [
                            -80.15798869989074,
                            26.009750845004035
                        ],
                        [
                            -80.15460755230889,
                            26.0098023997092
                        ]
                    ]
                ]
            }
        },
        {
            "type": "Feature",
            "properties": {
                "name": "Hollywood - West of City Hall",
                "timezone": "America/New_York",
                "zone": "Zone 2",
                "Sunday": "11 AM - 7 PM",
                "Monday": "6 AM - 7 PM",
                "Tuesday": "6 AM - 7 PM",
                "Wednesday": "6 AM - 7 PM",
                "Thursday": "6 AM - 7 PM",
                "Friday": "6 AM - 7 PM",
                "Saturday": "9 AM - 5 PM"
            },
            "geometry": {
                "type": "Polygon",
                "coordinates": [
                    [
                        [
                            -80.22036364696697,
                            26.03246990574195
                        ],
                        [
                            -80.23302367351727,
                            26.031814360308587
                        ],
                        [
                            -80.2321653666325,
                            26.009137946388886
                        ],
                        [
                            -80.21208098552898,
                            26.00929222250752
                        ],
                        [
                            -80.21182349346356,
                            26.00215673993723
                        ],
                        [
                            -80.21461299083904,
                            26.00219531127861
                        ],
                        [
                            -80.21431258342938,
                            25.998839557197588
                        ],
                        [
                            -80.20899108074383,
                            25.998878129628164
                        ],
                        [
                            -80.20903399608807,
                            26.002272453923382
                        ],
                        [
                            -80.19036582134441,
                            26.00246531031363
                        ],
                        [
                            -80.19032290600018,
                            26.000961022072353
                        ],
                        [
                            -80.18997958324627,
                            26.00007386869451
                        ],
                        [
                            -80.18894961498455,
                            25.99964957558022
                        ],
                        [
                            -80.18706133983807,
                            25.998993846843927
                        ],
                        [
                            -80.18521598003582,
                            25.998800984754336
                        ],
                        [
                            -80.18285563610272,
                            25.9990709915911
                        ],
                        [
                            -80.18118193767742,
                            25.99953385901036
                        ],
                        [
                            -80.17877867840008,
                            26.00026672869441
                        ],
                        [
                            -80.1768904032536,
                            26.001269595589818
                        ],
                        [
                            -80.17568877361492,
                            26.002851022144178
                        ],
                        [
                            -80.17508795879559,
                            26.00470242129961
                        ],
                        [
                            -80.17500212810711,
                            26.010140737536894
                        ],
                        [
                            -80.17380049846844,
                            26.0101793062562
                        ],
                        [
                            -80.17362883709148,
                            26.007749452200162
                        ],
                        [
                            -80.16886523388104,
                            26.008752255205508
                        ],
                        [
                            -80.16869357250408,
                            26.01033358100666
                        ],
                        [
                            -80.15886595867352,
                            26.01033358100666
                        ],
                        [
                            -80.15895178936199,
                            26.012454838270344
                        ],
                        [
                            -80.16710570476727,
                            26.011992021772322
                        ],
                        [
                            -80.16740611217693,
                            26.013071924096465
                        ],
                        [
                            -80.16865065715984,
                            26.013071924096465
                        ],
                        [
                            -80.16869357250408,
                            26.011953453648463
                        ],
                        [
                            -80.16959479473309,
                            26.012107726067857
                        ],
                        [
                            -80.16980937145428,
                            26.022404951668623
                        ],
                        [
                            -80.17135432384686,
                            26.02232782225053
                        ],
                        [
                            -80.17144015453533,
                            26.025258704501017
                        ],
                        [
                            -80.16998103283123,
                            26.025374395719638
                        ],
                        [
                            -80.17010977886395,
                            26.02803526226556
                        ],
                        [
                            -80.17019560955242,
                            26.029230704401584
                        ],
                        [
                            -80.17483046673016,
                            26.03100456383317
                        ],
                        [
                            -80.17504504345135,
                            26.032739835149744
                        ],
                        [
                            -80.16993811748699,
                            26.03285551899149
                        ],
                        [
                            -80.16985228679852,
                            26.02818951354818
                        ],
                        [
                            -80.1679210963078,
                            26.02826663911345
                        ],
                        [
                            -80.16809275768475,
                            26.033665302689364
                        ],
                        [
                            -80.1746588053532,
                            26.03354961964622
                        ],
                        [
                            -80.17525962017254,
                            26.0387938029496
                        ],
                        [
                            -80.1768904032536,
                            26.0387938029496
                        ],
                        [
                            -80.17603209636883,
                            26.034706444943563
                        ],
                        [
                            -80.17843535564617,
                            26.03466788428414
                        ],
                        [
                            -80.1783495249577,
                            26.03347249755406
                        ],
                        [
                            -80.18980792186932,
                            26.033202569832245
                        ],
                        [
                            -80.18993666790203,
                            26.03702006131013
                        ],
                        [
                            -80.19255450390057,
                            26.035978939592958
                        ],
                        [
                            -80.19521525524334,
                            26.03632598119222
                        ],
                        [
                            -80.1960735621281,
                            26.03613318043051
                        ],
                        [
                            -80.19834807537273,
                            26.037174300778524
                        ],
                        [
                            -80.20019343517498,
                            26.037174300778524
                        ],
                        [
                            -80.20023635051922,
                            26.033164008678412
                        ],
                        [
                            -80.22036364696697,
                            26.03246990574195
                        ]
                    ]
                ]
            }
        }
    ]
}